0 COSMOS 839 DEB
1 10446U 76067X   13282.11026104 -.00000248  00000-0 -10531-2 0  2375
2 10446 065.8825 335.1807 0633773 030.0840 040.6725 12.16741594655888
0 COSMOS 839 DEB
1 10446U 76067X   13284.15602000 -.00000158  00000-0 -57176-3 0  2384
2 10446 065.8821 331.3579 0633887 029.3030 001.6508 12.16740346656135
0 COSMOS 839 DEB
1 10446U 76067X   13286.47232748  .00000078  00000-0  69516-3 0  2390
2 10446 065.8817 327.0297 0634012 028.4190 067.7005 12.16737974656416
0 COSMOS 839 DEB
1 10446U 76067X   13288.52976091  .00000228  00000-0  15011-2 0  2403
2 10446 065.8814 323.1848 0634094 027.6362 079.7952 12.16737086656669
0 COSMOS 839 DEB
1 10446U 76067X   13291.14822706  .00000170  00000-0  11870-2 0  2414
2 10446 065.8815 318.2912 0634251 026.6309 029.3547 12.16738900656984
0 COSMOS 839 DEB
1 10446U 76067X   13293.37461898 -.00000040  00000-0  61893-4 0  2422
2 10446 065.8815 314.1299 0634299 025.7867 061.5246 12.16741490657251
0 COSMOS 839 DEB
1 10446U 76067X   13295.43247105 -.00000211  00000-0 -85550-3 0  2431
2 10446 065.8812 310.2837 0634410 024.9991 075.4676 12.16742788657507
